#dP2024 11 20 12  0  0.00000000      96 __u+U IGS20 EXT  IAC
## 2341 302400.00000000   900.00000000 60634 0.5000000000000
+   51   G02G03G04G05G06G07G08G09G10G11G12G13G14G15G16G17G18
+        G19G20G21G22G23G24G25G26G27G28G29G30G31G32R01R03R04
+        R05R07R08R09R11R12R14R15R16R17R18R19R20R21R22R24R26
+          0  0  0  0  0  0  0  0  0  0  0  0  0  0  0  0  0
+          0  0  0  0  0  0  0  0  0  0  0  0  0  0  0  0  0
++         6  7  6  6  6  7  7  8  7  7  7  8  8  6  8  6  6
++         8  6  6  7  7  7 10  7  7  6  7  6  7  7  8  9  8
++         8  8  8  8  7  8  7  8  8  7  9  7  9  6  7  8  6
++         0  0  0  0  0  0  0  0  0  0  0  0  0  0  0  0  0
++         0  0  0  0  0  0  0  0  0  0  0  0  0  0  0  0  0
%c M  cc GPS ccc cccc cccc cccc cccc ccccc ccccc ccccc ccccc
%c cc cc ccc ccc cccc cccc cccc cccc ccccc ccccc ccccc ccccc
%f  0.0000000  0.000000000  0.00000000000  0.000000000000000
%f  0.0000000  0.000000000  0.00000000000  0.000000000000000
%i    0    0    0    0      0      0      0      0         0
%i    0    0    0    0      0      0      0      0         0
/* IAC                                ULTRA-RAPID PREDICTION
/* S/V CLOCKS ARE ALIGNED TO GNSS TIME                      
/* G:C1WC2W R:C1PC2P E:C1XC5X C:C2IC6I J:C1CC2S             
/* PCV:IGS20_2317 OL/AL:FES2004  NONE     YN ORB:CoN CLK:CoN
*  2024 11 20 18  0  0.00000000
PG02 -20700.048712 -13598.256886  -9598.550311   -310.168927
PG03 -12191.755396 -18169.734355  14967.873957    604.981554
PG04 -14734.645859  -7269.540919  20913.467770    482.769243
PG05   5408.343747  25950.169057  -1145.789448   -193.600377
PG06 -13846.871234   8952.295331  20923.076042   -129.678922
PG07 -25344.855652  -6503.076313  -5254.064404    -19.066864
PG08  -4667.159954 -15613.186863 -21017.655036    418.702180
PG09 -20769.968108   1995.373409  16377.072059    452.424824
PG10  10900.089058 -14438.543157 -19096.053831   -203.282974
PG11    448.521825  16289.229788  21023.424092   -750.832376
PG12   9360.603307  21894.651490  11524.085462   -553.351774
PG13  -5365.499518  17868.838831 -19043.656061    686.817661
PG14 -13560.644000  10458.565139 -20199.016046    543.888344
PG15   7021.484325  15161.554452 -21146.874680    230.101292
PG16    881.740760 -26106.503450   2829.346196   -123.397878
PG17 -22795.767527  13604.481599  -2086.546305    551.129178
PG18  24893.239391   4810.353109  -8267.086202   -660.502349
PG19 -18553.776966  17180.870371   7218.119112    565.009075
PG20   -456.913508  24262.045750  11043.646384    368.566181
PG21 -16207.036835 -15652.495395 -14481.008828     96.980134
PG22 -10230.800022  18694.692957 -15648.560999    -80.858011
PG23  14933.202784    724.314100 -21931.135362    367.290450
PG24  18665.687167  15123.881669 -12219.163218   -479.095544
PG25  15355.275760   9307.956269  19304.164018    498.853473
PG26   6040.752708 -21423.344015  14025.457849     19.457238
PG27   6755.015794 -19816.456717 -16382.476264    -34.660898
PG28  15682.449961  -8668.084517  19592.506785   -484.920602
PG29  20585.027738    383.693560  16807.721894   -562.294269
PG30 -21563.150009   3200.270845 -15206.126730   -277.919742
PG31   5236.682442 -14339.794854  21478.619244   -221.423526
PG32  20784.314508 -16355.445413    163.178507   -570.981274
PR01  12930.887922  -1540.969573 -21937.183303    105.069797
PR03  10366.783791 -22325.275940   6603.131703    111.753210
PR04   -660.825743 -15939.488773  19921.118363    264.873964
PR05 -11637.194960  -1231.789463  22675.928863    140.997429
PR07 -10259.535379  22339.613641  -6883.491735     95.361939
PR08    991.278523  15865.420258 -19907.952526     -6.235275
PR09 -10052.101905   5235.074056 -22835.816279    221.661313
PR11  10957.018209  22861.895018  -2729.017232      6.481618
PR12  15452.663001  12733.100461  15832.242602     47.464600
PR14  -1235.961579 -19196.012454  16771.358819     27.250157
PR15 -11633.845810 -22684.983719    962.927253     73.923442
PR16 -15410.330038 -12915.328314 -15713.047145     30.951105
PR17   6664.934281 -10049.461772 -22468.059918    141.593899
PR18 -11276.637452  -9982.939160 -20577.148459    172.841951
PR19 -22560.727506  -6463.186701  -9976.164589   -299.146530
PR20 -22714.409228   3029.415293  11257.853116   -122.168358
PR21  -7757.273891   9743.702867  22262.962446   -152.949046
PR22  12180.973013  10418.467504  19872.523697    -16.238802
PR24  22291.768780  -4555.347252 -11529.397325    -80.908291
PR26   -125.068366  16997.587265 -18995.764571   -133.397790
*  2024 11 20 18 15  0.00000000
PG02 -19404.453740 -13431.368291 -12065.043213   -310.161199
PG03 -12303.722738 -19772.358786  12708.347533    604.990481
PG04 -12834.370096  -8774.457349  21565.545850    482.775013
PG05   5179.892596  25944.084491   1740.164717   -193.601518
PG06 -15962.432629   8039.831565  19759.829570   -129.705513
PG07 -25720.207605  -6915.705173  -2491.534069    -19.065094
PG08  -2840.928150 -17084.633124 -20136.928037    418.711187
PG09 -19364.861242    581.220246  18103.030274    452.440196
PG10  11360.293835 -12176.046280 -20377.276777   -203.296152
PG11  -1800.438686  15367.214996  21631.961570   -750.833654
PG12   9246.870145  23121.883722   9010.461913   -553.354087
PG13  -7188.506575  18813.848534 -17424.098493    686.818991
PG14 -13984.273633   8118.962435 -20989.982436    543.895532
PG15   5436.596397  16801.062743 -20325.235810    230.105321
PG16   1208.820717 -25598.549955   5656.359877   -123.389101
PG17 -22568.274471  13161.212903  -4905.072061    551.115852
PG18  25553.611668   5280.114538  -5543.885277   -660.502590
PG19 -19278.382661  17336.359629   4433.729560    565.013021
PG20  -1117.145825  23028.958958  13390.351785    368.565861
PG21 -14442.448893 -15298.037741 -16437.214147     96.979267
PG22 -10528.079390  16759.011466 -17463.934798    -80.860541
PG23  15370.837869   3165.939954 -21427.148234    367.297551
PG24  17208.970246  14964.513190 -14403.639197   -479.093446
PG25  15615.308540  11487.981777  17919.818469    498.853188
PG26   6731.800685 -19774.230737  16006.072653     19.445353
PG27   8209.777816 -20766.974559 -14340.926597    -34.660771
PG28  17687.694597  -7844.980750  18182.442735   -484.931050
PG29  19003.538255   1649.055176  18493.420091   -562.291615
PG30 -23015.929072   2404.380562 -13123.788789   -277.912684
PG31   7565.039318 -13405.225993  21421.979907   -221.422986
PG32  20823.483855 -16042.887530  -2704.659002   -570.976393
PR01  11582.853608    861.441099 -22713.476854    105.070897
PR03  10540.086173 -22937.583672   3455.364325    111.753842
PR04    450.958232 -18003.364280  18079.622539    264.875631
PR05 -10157.894755  -3639.688956  23121.436378    140.997914
PR07 -10449.848804  22993.426632  -3753.002997     95.362529
PR08   -116.092060  17947.135866 -18090.136316     -6.235298
PR09 -11538.341540   2859.183825 -22559.742611    221.663201
PR11  10810.027590  22330.365265  -5884.729123      6.480754
PR12  16444.110296  14235.258283  13358.973571     47.464944
PR14   -184.476671 -17272.698319  18785.193462     27.250085
PR15 -11588.483459 -22349.304073   4145.957940     73.923070
PR16 -16415.457008 -14395.380203 -13213.791121     30.951312
PR17   9381.328064 -10081.547214 -21465.778057    141.596869
PR18  -8652.738096  -9841.092241 -21870.249695    172.843529
PR19 -21163.662865  -6198.881859 -12803.280259   -299.147789
PR20 -23930.127680   3160.494712   8317.581364   -122.168907
PR21 -10437.250677   9760.339647  21128.753488   -152.952004
PR22   9652.754153  10239.477365  21305.592711    -16.249518
PR24  23540.831657  -4680.082347  -8643.538144    -80.909718
PR26  -1145.890287  18977.215335 -16980.963047   -133.397646
EOF
